ONEWEB-0328             
1 49197U 21083M   25319.54326573 -.00000334  00000+0 -94955-3 0  9995
2 49197  87.9015   2.6650 0001769  93.0891 267.0441 13.13470101202856
ONEWEB-0331             
1 49198U 21083N   25319.55497269  .00000041  00000+0  70058-4 0  9990
2 49198  87.9217  17.8778 0001460  98.6228 261.5070 13.18688149201857
ONEWEB-0333             
1 49199U 21083P   25319.53818808 -.00000354  00000+0 -10054-2 0  9992
2 49199  87.8995   2.7231 0001836  99.8263 260.3073 13.13469348202861
ONEWEB-0334             
1 49200U 21083Q   25319.50840265  .00000116  00000+0  25353-3 0  9997
2 49200  87.9177 317.0776 0002825  98.8306 261.3147 13.20772311208582
ONEWEB-0335             
1 49201U 21083R   25319.53310946 -.00000261  00000+0 -74851-3 0  9999
2 49201  87.9002   2.7128 0001603  97.8865 262.2446 13.13469347202873
ONEWEB-0336             
1 49202U 21083S   25319.50433101  .00000375  00000+0  99318-3 0  9995
2 49202  87.9001   2.7128 0001478  97.5441 262.5856 13.13468074202863
ONEWEB-0337             
1 49203U 21083T   25319.36198925  .00000194  00000+0  49583-3 0  9990
2 49203  87.9012   2.7523 0001714  91.4464 268.6861 13.13468506202847
ONEWEB-0338             
1 49204U 21083U   25319.48314149  .00000094  00000+0  19943-3 0  9998
2 49204  87.9180 317.0845 0002140  92.2476 267.8902 13.20771121208604
ONEWEB-0339             
1 49205U 21083V   25319.82766484 -.00000022  00000+0 -94714-4 0  9993
2 49205  87.9012   2.6419 0001932  94.0860 266.0490 13.13468587202886
ONEWEB-0340             
1 49206U 21083W   25319.61763976  .00000073  00000+0  15204-3 0  9994
2 49206  87.9218  17.8699 0001700 100.1344 259.9980 13.18689451201820
ONEWEB-0341             
1 49207U 21083X   25319.62423831 -.00000028  00000+0 -10298-3 0  9999
2 49207  87.9218  17.8806 0001785  82.9201 277.2134 13.18688707201842
ONEWEB-0342             
1 49208U 21083Y   25319.48944544  .00000080  00000+0  16402-3 0  9992
2 49208  87.9188 317.0528 0001983  90.7963 269.3397 13.20773422208579
ONEWEB-0343             
1 49209U 21083Z   25319.55663170  .00000076  00000+0  16122-3 0  9998
2 49209  87.9221  17.8859 0002186  86.8915 273.2467 13.18686712201880
ONEWEB-0344             
1 49210U 21083AA  25319.82258359 -.00000096  00000+0 -29676-3 0  9991
2 49210  87.9001   2.6770 0001716  84.2009 275.9316 13.13468960202887
ONEWEB-0345             
1 49211U 21083AB  25319.81412983  .00000277  00000+0  72464-3 0  9998
2 49211  87.9008   2.6363 0001833  85.3004 274.8334 13.13469150202891
ONEWEB-0346             
1 49212U 21083AC  25319.55331564  .00000049  00000+0  90420-4 0  9995
2 49212  87.9219  17.9029 0001289 113.2126 246.9141 13.18684596201821
ONEWEB-0348             
1 49213U 21083AD  25319.47997545  .00000083  00000+0  17135-3 0  9993
2 49213  87.9176 317.0632 0001399  76.5231 283.6058 13.20773487208607
ONEWEB-0350             
1 49214U 21083AE  25319.82342769  .00000104  00000+0  25028-3 0  9999
2 49214  87.9011   2.6314 0001680  86.8256 273.3066 13.13467780202926
ONEWEB-0351             
1 49215U 21083AF  25319.70081318  .00000084  00000+0  17387-3 0  9993
2 49215  87.9186 317.0132 0002735  84.6277 275.5168 13.20772102208593
ONEWEB-0352             
1 49216U 21083AG  25319.57543819  .00000357  00000+0  94225-3 0  9997
2 49216  87.9001   2.7065 0002253  94.7812 265.3574 13.13470005202989
ONEWEB-0354             
1 49217U 21083AH  25319.49892398  .00000069  00000+0  13726-3 0  9995
2 49217  87.9191 317.0520 0001690  81.2274 278.9050 13.20772795208608
ONEWEB-0355             
1 49218U 21083AJ  25319.83288404 -.00000226  00000+0 -65422-3 0  9998
2 49218  87.9003   2.6676 0001943  90.7921 269.3431 13.13469090202890
ONEWEB-0357             
1 49219U 21083AK  25319.49577204  .00000128  00000+0  28195-3 0  9995
2 49219  87.9185 317.0496 0001937  86.3039 273.8316 13.20772516208604
ONEWEB-0332             
1 49279U 21090A   25319.47989141 -.00000020  00000+0 -88415-4 0  9999
2 49279  87.8979 332.2963 0002028  97.4255 262.7105 13.14503084199509
ONEWEB-0347             
1 49280U 21090B   25319.71357164  .00000206  00000+0  47359-3 0  9997
2 49280  87.9180 317.0183 0001978  99.7943 260.3413 13.20770877202866
ONEWEB-0349             
1 49281U 21090C   25319.44211554  .00000039  00000+0  64964-4 0  9996
2 49281  87.9174 317.0714 0001943  89.0638 271.0718 13.20772434201615
ONEWEB-0353             
1 49282U 21090D   25319.47196312  .00000053  00000+0  10806-3 0  9995
2 49282  87.8988 332.2810 0002019  98.3932 261.7427 13.14501873199506
ONEWEB-0356             
1 49283U 21090E   25319.44052514  .00000009  00000+0 -98746-5 0  9991
2 49283  87.9177 317.0631 0001314 118.6684 241.4581 13.20772993201619
ONEWEB-0358             
1 49284U 21090F   25319.69778235  .00000131  00000+0  28993-3 0  9994
2 49284  87.9191 317.0116 0001714  89.9150 270.2180 13.20772930202376
ONEWEB-0359             
1 49285U 21090G   25319.69461926  .00000074  00000+0  15037-3 0  9992
2 49285  87.9184 317.0135 0001694  77.0975 283.0348 13.20770827202359
ONEWEB-0360             
1 49286U 21090H   25319.45789573  .00000081  00000+0  16733-3 0  9990
2 49286  87.9178 317.0699 0001823  85.9797 274.1545 13.20771122201631
ONEWEB-0361             
1 49287U 21090J   25319.43894910  .00000011  00000+0 -49606-5 0  9992
2 49287  87.9178 317.0691 0001695  93.3841 266.7486 13.20771180202089
ONEWEB-0362             
1 49288U 21090K   25319.52550218 -.00000008  00000+0 -52210-4 0  9994
2 49288  87.9208 347.5020 0002033  89.8358 270.3007 13.19727038198735
ONEWEB-0363             
1 49289U 21090L   25319.45471176 -.00000008  00000+0 -51486-4 0  9996
2 49289  87.9182 317.0626 0001512  96.6677 263.4629 13.20772908202098
ONEWEB-0364             
1 49290U 21090M   25319.71987546  .00000055  00000+0  10345-3 0  9998
2 49290  87.9175 317.0354 0001754  93.4413 266.6921 13.20773822203267
ONEWEB-0365             
1 49291U 21090N   25319.53497750  .00000044  00000+0  76353-4 0  9992
2 49291  87.9224 347.4610 0001954  95.5430 264.5926 13.19727470198248
ONEWEB-0366             
1 49292U 21090P   25319.46878767 -.00000215  00000+0 -61417-3 0  9992
2 49292  87.8983 332.2998 0001742  92.9320 267.2009 13.14502902199480
ONEWEB-0367             
1 49293U 21090Q   25319.45314641  .00000034  00000+0  50750-4 0  9994
2 49293  87.9187 317.0613 0002020  87.4542 272.6822 13.20773522201615
ONEWEB-0368             
1 49294U 21090R   25319.50207737 -.00000160  00000+0 -42580-3 0  9991
2 49294  87.9180 317.0835 0002524 109.6731 250.4675 13.20773458202777
ONEWEB-0369             
1 49295U 21090S   25319.45442881  .00000001  00000+0 -29953-4 0  9990
2 49295  87.9219 347.5067 0001930  96.6219 263.5134 13.19726480198222
ONEWEB-0370             
1 49296U 21090T   25319.68988830  .00000085  00000+0  17783-3 0  9993
2 49296  87.9182 317.0208 0001930  80.2052 279.9299 13.20773311201680
ONEWEB-0371             
1 49297U 21090U   25319.46280362 -.00053531  00000+0 -13538+0 0  9991
2 49297  87.9246 347.4961 0002772 172.6297 187.4876 13.19297496198263
ONEWEB-0372             
1 49298U 21090V   25319.45144164 -.00000048  00000+0 -14961-3 0  9990
2 49298  87.9178 317.0692 0001952  92.7192 267.4165 13.20772657201621
ONEWEB-0373             
1 49299U 21090W   25319.70568134  .00000131  00000+0  28928-3 0  9995
2 49299  87.9178 317.0319 0001772  88.7030 271.4307 13.20771475202849
ONEWEB-0374             
1 49300U 21090X   25319.45611181 -.00000170  00000+0 -49197-3 0  9997
2 49300  87.8992 332.2793 0001574 109.2798 250.8502 13.14502522199481
ONEWEB-0375             
1 49301U 21090Y   25319.69305150  .00000035  00000+0  55215-4 0  9997
2 49301  87.9179 317.0146 0001303  95.5496 264.5786 13.20772866202348
ONEWEB-0376             
1 49302U 21090Z   25319.53656654  .00000081  00000+0  16889-3 0  9993
2 49302  87.9223 347.4636 0002089  96.8129 263.3241 13.19725441198273
ONEWEB-0377             
1 49303U 21090AA  25319.45171584 -.00000022  00000+0 -86793-4 0  9998
2 49303  87.9183 317.0614 0001736  84.4005 275.7327 13.20772309202301
ONEWEB-0378             
1 49304U 21090AB  25319.70107564  .00000049  00000+0  89326-4 0  9996
2 49304  87.9183 317.0268 0001730  92.3891 267.7441 13.20774462201604
ONEWEB-0379             
1 49305U 21090AC  25319.45135698 -.00000143  00000+0 -41907-3 0  9997
2 49305  87.8991 332.2883 0001838  96.5945 263.5394 13.14502338199485
ONEWEB-0380             
1 49306U 21090AD  25319.53340242  .00000094  00000+0  20223-3 0  9991
2 49306  87.9218 347.4877 0001497  94.3300 265.8004 13.19727303198244
ONEWEB-0381             
1 49307U 21090AE  25319.44841714 -.00000033  00000+0 -11406-3 0  9990
2 49307  87.9179 317.0665 0001592  92.5785 267.5531 13.20772606201610
ONEWEB-0382             
1 49308U 21090AF  25319.43579897  .00000051  00000+0  93933-4 0  9994
2 49308  87.9187 317.0630 0001604  97.3442 262.7874 13.20772271201603
ONEWEB-0383             
1 49309U 21090AG  25319.44499763 -.00000335  00000+0 -93699-3 0  9994
2 49309  87.8996 332.2735 0001777  98.9721 261.1610 13.14502724199518
ONEWEB-0384             
1 49310U 21090AH  25319.42974924  .00000050  00000+0  90510-4 0  9993
2 49310  87.9200 317.0980 0001580 104.9819 255.1490 13.20796998201619
ONEWEB-0385             
1 49311U 21090AJ  25319.50364544  .00000027  00000+0  34325-4 0  9990
2 49311  87.9181 317.0568 0001760  93.4284 266.7051 13.20770994201594
ONEWEB-0386             
1 49312U 21090AK  25319.44525721  .00000050  00000+0  91950-4 0  9993
2 49312  87.9185 317.0501 0001672  97.5106 262.6217 13.20773351201607
ONEWEB-0387             
1 49313U 21090AL  25319.50524212  .00000093  00000+0  19572-3 0  9991
2 49313  87.9179 317.0858 0001547  86.0507 274.0803 13.20772207201613
ONEWEB-0388             
1 49314U 21090AM  25319.83193354 -.00000045  00000+0 -14588-3 0  9998
2 49314  87.9207 347.4316 0001776  99.0478 261.0856 13.19726377198273
